SL-14 R/B               
1 21423U 91042B   26035.06202600  .00000415  00000+0  49488-4 0  9996
2 21423  82.4903 251.7237 0016949 356.9091   3.2015 14.81797003848099
ERS-1                   
1 21574U 91050A   26035.05374087  .00000396  00000+0  14154-3 0  9999
2 21574  98.7895  52.4425 0031020 303.1366  56.6845 14.39420653810894
ARIANE 40 R/B           
1 21610U 91050F   26035.18465523  .00000377  00000+0  12545-3 0  9991
2 21610  98.2081  88.6670 0003555 156.4956 203.6398 14.42867798814166
INTERCOSMOS 25          
1 21819U 91086A   26035.13711604  .00000701  00000+0  13480-3 0  9990
2 21819  82.6089 330.2836 1486575 189.2210 167.8501 12.11907389492622
SL-8 R/B                
1 21876U 92008B   26035.20965534  .00000078  00000+0  64554-4 0  9995
2 21876  82.9273 292.6839 0033591 226.9067 245.6738 13.75969273704816
SL-8 R/B                
1 21938U 92020B   26035.18212919  .00000125  00000+0  11323-3 0  9995
2 21938  82.9322 178.6326 0029576  33.6603 140.0565 13.75544189696520
USA 81                  
1 21949U 92023A   26034.56808307  .00000252  00000+0  85876-4 0  9999
2 21949  85.0119 151.1149 0002483 107.8851 252.2612 14.32354483 89903
COSMOS 2219             
1 22219U 92076A   26035.20315575 -.00000200  00000+0 -79932-4 0  9991
2 22219  71.0590  88.0752 0020527 253.3647 106.5222 14.14077379713648
SL-16 R/B               
1 22220U 92076B   26035.11229096  .00000281  00000+0  16406-3 0  9998
2 22220  70.9983 259.1051 0011836 155.4747  14.0111 14.16853529717075
COSMOS 2221             
1 22236U 92080A   26035.19697065  .00002477  00000+0  21803-3 0  9999
2 22236  82.5065 311.1554 0013209 310.5082  49.4988 14.96060616775782
SL-16 R/B               
1 22285U 92093B   26035.17112879 -.00000224  00000+0 -90542-4 0  9997
2 22285  71.0205  74.6332 0005041 328.6199  31.4622 14.15441841708410
COSMOS 2228             
1 22286U 92094A   26035.16836545  .00002208  00000+0  18879-3 0  9995
2 22286  82.5161 269.4093 0019367  57.1522 303.1562 14.97033435771044
