CCSDS_OMM_VERS = 2.0
CREATION_DATE  = 
ORIGINATOR     = 

OBJECT_NAME    = SL-14 R/B
OBJECT_ID      = 1991-042B
CENTER_NAME    = EARTH
REF_FRAME      = TEME
TIME_SYSTEM    = UTC
MEAN_ELEMENT_THEORY = SGP/SGP4

EPOCH          = 2026-02-04T01:29:19.046400
MEAN_MOTION    = 14.81797003
ECCENTRICITY   = .0016949
INCLINATION    = 82.4903
RA_OF_ASC_NODE = 251.7237
ARG_OF_PERICENTER = 356.9091
MEAN_ANOMALY   = 3.2015

EPHEMERIS_TYPE = 0
CLASSIFICATION_TYPE = U
NORAD_CAT_ID   = 21423
ELEMENT_SET_NO = 999
REV_AT_EPOCH   = 84809
BSTAR          = .49488E-4
MEAN_MOTION_DOT = .415E-5
MEAN_MOTION_DDOT = 0

CCSDS_OMM_VERS = 2.0
CREATION_DATE  = 
ORIGINATOR     = 

OBJECT_NAME    = ERS-1
OBJECT_ID      = 1991-050A
CENTER_NAME    = EARTH
REF_FRAME      = TEME
TIME_SYSTEM    = UTC
MEAN_ELEMENT_THEORY = SGP/SGP4

EPOCH          = 2026-02-04T01:17:23.211168
MEAN_MOTION    = 14.39420653
ECCENTRICITY   = .003102
INCLINATION    = 98.7895
RA_OF_ASC_NODE = 52.4425
ARG_OF_PERICENTER = 303.1366
MEAN_ANOMALY   = 56.6845

EPHEMERIS_TYPE = 0
CLASSIFICATION_TYPE = U
NORAD_CAT_ID   = 21574
ELEMENT_SET_NO = 999
REV_AT_EPOCH   = 81089
BSTAR          = .14154E-3
MEAN_MOTION_DOT = .396E-5
MEAN_MOTION_DDOT = 0

CCSDS_OMM_VERS = 2.0
CREATION_DATE  = 
ORIGINATOR     = 

OBJECT_NAME    = ARIANE 40 R/B
OBJECT_ID      = 1991-050F
CENTER_NAME    = EARTH
REF_FRAME      = TEME
TIME_SYSTEM    = UTC
MEAN_ELEMENT_THEORY = SGP/SGP4

EPOCH          = 2026-02-04T04:25:54.211872
MEAN_MOTION    = 14.42867798
ECCENTRICITY   = .0003555
INCLINATION    = 98.2081
RA_OF_ASC_NODE = 88.6670
ARG_OF_PERICENTER = 156.4956
MEAN_ANOMALY   = 203.6398

EPHEMERIS_TYPE = 0
CLASSIFICATION_TYPE = U
NORAD_CAT_ID   = 21610
ELEMENT_SET_NO = 999
REV_AT_EPOCH   = 81416
BSTAR          = .12545E-3
MEAN_MOTION_DOT = .377E-5
MEAN_MOTION_DDOT = 0

CCSDS_OMM_VERS = 2.0
CREATION_DATE  = 
ORIGINATOR     = 

OBJECT_NAME    = INTERCOSMOS 25
OBJECT_ID      = 1991-086A
CENTER_NAME    = EARTH
REF_FRAME      = TEME
TIME_SYSTEM    = UTC
MEAN_ELEMENT_THEORY = SGP/SGP4

EPOCH          = 2026-02-04T03:17:26.825856
MEAN_MOTION    = 12.11907389
ECCENTRICITY   = .1486575
INCLINATION    = 82.6089
RA_OF_ASC_NODE = 330.2836
ARG_OF_PERICENTER = 189.2210
MEAN_ANOMALY   = 167.8501

EPHEMERIS_TYPE = 0
CLASSIFICATION_TYPE = U
NORAD_CAT_ID   = 21819
ELEMENT_SET_NO = 999
REV_AT_EPOCH   = 49262
BSTAR          = .1348E-3
MEAN_MOTION_DOT = .701E-5
MEAN_MOTION_DDOT = 0

CCSDS_OMM_VERS = 2.0
CREATION_DATE  = 
ORIGINATOR     = 

OBJECT_NAME    = SL-8 R/B
OBJECT_ID      = 1992-008B
CENTER_NAME    = EARTH
REF_FRAME      = TEME
TIME_SYSTEM    = UTC
MEAN_ELEMENT_THEORY = SGP/SGP4

EPOCH          = 2026-02-04T05:01:54.221376
MEAN_MOTION    = 13.75969273
ECCENTRICITY   = .0033591
INCLINATION    = 82.9273
RA_OF_ASC_NODE = 292.6839
ARG_OF_PERICENTER = 226.9067
MEAN_ANOMALY   = 245.6738

EPHEMERIS_TYPE = 0
CLASSIFICATION_TYPE = U
NORAD_CAT_ID   = 21876
ELEMENT_SET_NO = 999
REV_AT_EPOCH   = 70481
BSTAR          = .64554E-4
MEAN_MOTION_DOT = .78E-6
MEAN_MOTION_DDOT = 0

CCSDS_OMM_VERS = 2.0
CREATION_DATE  = 
ORIGINATOR     = 

OBJECT_NAME    = SL-8 R/B
OBJECT_ID      = 1992-020B
CENTER_NAME    = EARTH
REF_FRAME      = TEME
TIME_SYSTEM    = UTC
MEAN_ELEMENT_THEORY = SGP/SGP4

EPOCH          = 2026-02-04T04:22:15.962016
MEAN_MOTION    = 13.75544189
ECCENTRICITY   = .0029576
INCLINATION    = 82.9322
RA_OF_ASC_NODE = 178.6326
ARG_OF_PERICENTER = 33.6603
MEAN_ANOMALY   = 140.0565

EPHEMERIS_TYPE = 0
CLASSIFICATION_TYPE = U
NORAD_CAT_ID   = 21938
ELEMENT_SET_NO = 999
REV_AT_EPOCH   = 69652
BSTAR          = .11323E-3
MEAN_MOTION_DOT = .125E-5
MEAN_MOTION_DDOT = 0

CCSDS_OMM_VERS = 2.0
CREATION_DATE  = 
ORIGINATOR     = 

OBJECT_NAME    = USA 81
OBJECT_ID      = 1992-023A
CENTER_NAME    = EARTH
REF_FRAME      = TEME
TIME_SYSTEM    = UTC
MEAN_ELEMENT_THEORY = SGP/SGP4

EPOCH          = 2026-02-03T13:38:02.377248
MEAN_MOTION    = 14.32354483
ECCENTRICITY   = .00024838
INCLINATION    = 85.0119
RA_OF_ASC_NODE = 151.1149
ARG_OF_PERICENTER = 107.8851
MEAN_ANOMALY   = 252.2612

EPHEMERIS_TYPE = 0
CLASSIFICATION_TYPE = U
NORAD_CAT_ID   = 21949
ELEMENT_SET_NO = 999
REV_AT_EPOCH   = 8990
BSTAR          = .85875639E-4
MEAN_MOTION_DOT = .252E-5
MEAN_MOTION_DDOT = 0

CCSDS_OMM_VERS = 2.0
CREATION_DATE  = 
ORIGINATOR     = 

OBJECT_NAME    = COSMOS 2219
OBJECT_ID      = 1992-076A
CENTER_NAME    = EARTH
REF_FRAME      = TEME
TIME_SYSTEM    = UTC
MEAN_ELEMENT_THEORY = SGP/SGP4

EPOCH          = 2026-02-04T04:52:32.656800
MEAN_MOTION    = 14.14077379
ECCENTRICITY   = .0020527
INCLINATION    = 71.0590
RA_OF_ASC_NODE = 88.0752
ARG_OF_PERICENTER = 253.3647
MEAN_ANOMALY   = 106.5222

EPHEMERIS_TYPE = 0
CLASSIFICATION_TYPE = U
NORAD_CAT_ID   = 22219
ELEMENT_SET_NO = 999
REV_AT_EPOCH   = 71364
BSTAR          = -.79932E-4
MEAN_MOTION_DOT = -.2E-5
MEAN_MOTION_DDOT = 0

CCSDS_OMM_VERS = 2.0
CREATION_DATE  = 
ORIGINATOR     = 

OBJECT_NAME    = SL-16 R/B
OBJECT_ID      = 1992-076B
CENTER_NAME    = EARTH
REF_FRAME      = TEME
TIME_SYSTEM    = UTC
MEAN_ELEMENT_THEORY = SGP/SGP4

EPOCH          = 2026-02-04T02:41:41.938944
MEAN_MOTION    = 14.16853529
ECCENTRICITY   = .0011836
INCLINATION    = 70.9983
RA_OF_ASC_NODE = 259.1051
ARG_OF_PERICENTER = 155.4747
MEAN_ANOMALY   = 14.0111

EPHEMERIS_TYPE = 0
CLASSIFICATION_TYPE = U
NORAD_CAT_ID   = 22220
ELEMENT_SET_NO = 999
REV_AT_EPOCH   = 71707
BSTAR          = .16406E-3
MEAN_MOTION_DOT = .281E-5
MEAN_MOTION_DDOT = 0

CCSDS_OMM_VERS = 2.0
CREATION_DATE  = 
ORIGINATOR     = 

OBJECT_NAME    = COSMOS 2221
OBJECT_ID      = 1992-080A
CENTER_NAME    = EARTH
REF_FRAME      = TEME
TIME_SYSTEM    = UTC
MEAN_ELEMENT_THEORY = SGP/SGP4

EPOCH          = 2026-02-04T04:43:38.264160
MEAN_MOTION    = 14.96060616
ECCENTRICITY   = .0013209
INCLINATION    = 82.5065
RA_OF_ASC_NODE = 311.1554
ARG_OF_PERICENTER = 310.5082
MEAN_ANOMALY   = 49.4988

EPHEMERIS_TYPE = 0
CLASSIFICATION_TYPE = U
NORAD_CAT_ID   = 22236
ELEMENT_SET_NO = 999
REV_AT_EPOCH   = 77578
BSTAR          = .21803E-3
MEAN_MOTION_DOT = .2477E-4
MEAN_MOTION_DDOT = 0

CCSDS_OMM_VERS = 2.0
CREATION_DATE  = 
ORIGINATOR     = 

OBJECT_NAME    = SL-16 R/B
OBJECT_ID      = 1992-093B
CENTER_NAME    = EARTH
REF_FRAME      = TEME
TIME_SYSTEM    = UTC
MEAN_ELEMENT_THEORY = SGP/SGP4

EPOCH          = 2026-02-04T04:06:25.527456
MEAN_MOTION    = 14.15441841
ECCENTRICITY   = .0005041
INCLINATION    = 71.0205
RA_OF_ASC_NODE = 74.6332
ARG_OF_PERICENTER = 328.6199
MEAN_ANOMALY   = 31.4622

EPHEMERIS_TYPE = 0
CLASSIFICATION_TYPE = U
NORAD_CAT_ID   = 22285
ELEMENT_SET_NO = 999
REV_AT_EPOCH   = 70841
BSTAR          = -.90542E-4
MEAN_MOTION_DOT = -.224E-5
MEAN_MOTION_DDOT = 0

CCSDS_OMM_VERS = 2.0
CREATION_DATE  = 
ORIGINATOR     = 

OBJECT_NAME    = COSMOS 2228
OBJECT_ID      = 1992-094A
CENTER_NAME    = EARTH
REF_FRAME      = TEME
TIME_SYSTEM    = UTC
MEAN_ELEMENT_THEORY = SGP/SGP4

EPOCH          = 2026-02-04T04:02:26.774880
MEAN_MOTION    = 14.97033435
ECCENTRICITY   = .0019367
INCLINATION    = 82.5161
RA_OF_ASC_NODE = 269.4093
ARG_OF_PERICENTER = 57.1522
MEAN_ANOMALY   = 303.1562

EPHEMERIS_TYPE = 0
CLASSIFICATION_TYPE = U
NORAD_CAT_ID   = 22286
ELEMENT_SET_NO = 999
REV_AT_EPOCH   = 77104
BSTAR          = .18879E-3
MEAN_MOTION_DOT = .2208E-4
MEAN_MOTION_DDOT = 0

